LEMUR-2-PETERG          
1 42841U 17042S   26068.48235713  .00023240  00000+0  81076-3 0  9993
2 42841  97.3980 253.6596 0003700 341.6938  18.4169 15.29611459473171
STARLINK-35011          
1 66082U 25235AA  26068.81239850  .00032233  00000+0  10956-2 0  9992
2 66082  53.1598 244.4566 0001045  64.9413 295.1696 15.30201757 22949
