[{"OBJECT_NAME":"LEMUR-2-PETERG","OBJECT_ID":"2017-042S","EPOCH":"2026-03-09T11:34:35.656032","MEAN_MOTION":15.29611459,"ECCENTRICITY":0.00037,"INCLINATION":97.398,"RA_OF_ASC_NODE":253.6596,"ARG_OF_PERICENTER":341.6938,"MEAN_ANOMALY":18.4169,"EPHEMERIS_TYPE":0,"CLASSIFICATION_TYPE":"U","NORAD_CAT_ID":42841,"ELEMENT_SET_NO":999,"REV_AT_EPOCH":47317,"BSTAR":0.00081076471,"MEAN_MOTION_DOT":0.0002324,"MEAN_MOTION_DDOT":0},{"OBJECT_NAME":"STARLINK-35011","OBJECT_ID":"2025-235AA","EPOCH":"2026-03-09T19:29:51.230400","MEAN_MOTION":15.30201757,"ECCENTRICITY":0.00010448,"INCLINATION":53.1598,"RA_OF_ASC_NODE":244.4566,"ARG_OF_PERICENTER":64.9413,"MEAN_ANOMALY":295.1696,"EPHEMERIS_TYPE":0,"CLASSIFICATION_TYPE":"U","NORAD_CAT_ID":66082,"ELEMENT_SET_NO":999,"REV_AT_EPOCH":2294,"BSTAR":0.0010956229,"MEAN_MOTION_DOT":0.00032233,"MEAN_MOTION_DDOT":0}]
